[{"OBJECT_NAME":"STARLINK-4393","OBJECT_ID":"2022-099F","EPOCH":"2026-03-09T22:07:48.387648","MEAN_MOTION":15.01259694,"ECCENTRICITY":0.0002203,"INCLINATION":97.6017,"RA_OF_ASC_NODE":190.439,"ARG_OF_PERICENTER":80.9921,"MEAN_ANOMALY":279.1553,"EPHEMERIS_TYPE":0,"CLASSIFICATION_TYPE":"U","NORAD_CAT_ID":53470,"ELEMENT_SET_NO":999,"REV_AT_EPOCH":19601,"BSTAR":-9.8480926e-5,"MEAN_MOTION_DOT":-1.323e-5,"MEAN_MOTION_DDOT":0},{"OBJECT_NAME":"PEGASUS R\/B","OBJECT_ID":"1994-029B","EPOCH":"2026-03-09T21:33:12.048768","MEAN_MOTION":14.76408324,"ECCENTRICITY":0.01139603,"INCLINATION":81.9597,"RA_OF_ASC_NODE":359.0956,"ARG_OF_PERICENTER":87.6383,"MEAN_ANOMALY":273.7868,"EPHEMERIS_TYPE":0,"CLASSIFICATION_TYPE":"U","NORAD_CAT_ID":23106,"ELEMENT_SET_NO":999,"REV_AT_EPOCH":70062,"BSTAR":0.00028197274,"MEAN_MOTION_DOT":2.205e-5,"MEAN_MOTION_DDOT":0}]
